     2              NAVIGATION DATA                         RINEX VERSION / TYPE
CCRINEXN V1.6.0 UX  CDDIS               23-JUN-21 04:18     PGM / RUN BY / DATE 
IGS BROADCAST EPHEMERIS FILE                                COMMENT             
    0.4657D-08  0.1490D-07 -0.5960D-07 -0.1192D-06          ION ALPHA           
    0.8192D+05  0.9830D+05 -0.6554D+05 -0.5243D+06          ION BETA            
    0.279396772385D-08 0.976996261670D-14   503808     2163 DELTA-UTC: A0,A1,T,W
    18                                                      LEAP SECONDS        
                                                            END OF HEADER       
 1 21  6 23  0  0  0.0 0.650190748274D-03-0.117097442853D-10 0.000000000000D+00
    0.114000000000D+03-0.133062500000D+03 0.390730561210D-08-0.117735891180D+01
   -0.679679214954D-05 0.110237492481D-01 0.838190317154D-05 0.515368189430D+04
    0.259200000000D+06 0.232830643654D-06 0.234568846647D+01 0.135973095894D-06
    0.984749258119D+00 0.226406250000D+03 0.862585271762D+00-0.776996650744D-08
   -0.635740766869D-10 0.100000000000D+01 0.216300000000D+04 0.000000000000D+00
    0.280000000000D+01 0.000000000000D+00 0.512227416039D-08 0.114000000000D+03
    0.252018000000D+06 0.400000000000D+01 0.000000000000D+00 0.000000000000D+00
 2 21  6 23  0  0  0.0-0.614390708506D-03-0.284217094304D-11 0.000000000000D+00
    0.410000000000D+02-0.157093750000D+03 0.446911472800D-08-0.891549234250D+00
   -0.808201730251D-05 0.201799345668D-01 0.828504562378D-05 0.515370627785D+04
    0.259200000000D+06-0.303611159325D-06 0.226132214615D+01 0.141561031342D-06
    0.963320359485D+00 0.228562500000D+03-0.151168734124D+01-0.842070789914D-08
   -0.414302971667D-10 0.100000000000D+01 0.216300000000D+04 0.000000000000D+00
    0.200000000000D+01 0.000000000000D+00-0.176951289177D-07 0.410000000000D+02
    0.252018000000D+06 0.400000000000D+01 0.000000000000D+00 0.000000000000D+00
 3 21  6 23  0  0  0.0-0.199601985514D-03-0.108002495835D-10 0.000000000000D+00
    0.310000000000D+02-0.993750000000D+01 0.438911139554D-08-0.221410483252D+01
   -0.536441802978D-06 0.361482205335D-02 0.106841325760D-04 0.515357360649D+04
    0.259200000000D+06 0.372529029846D-07-0.290060450530D+01-0.204890966415D-07
    0.970001335192D+00 0.178656250000D+03 0.864093669038D+00-0.773175062988D-08
    0.723958727216D-09 0.100000000000D+01 0.216300000000D+04 0.000000000000D+00
    0.200000000000D+01 0.000000000000D+00 0.186264514923D-08 0.310000000000D+02
    0.252018000000D+06 0.400000000000D+01 0.000000000000D+00 0.000000000000D+00
 4 21  6 23  0  0  0.0-0.200628768653D-03-0.102318153950D-11 0.000000000000D+00
    0.150000000000D+03-0.568750000000D+01 0.511307012275D-08 0.464295909023D+00
   -0.387430191040D-06 0.126777018886D-02 0.487267971039D-05 0.515371923828D+04
    0.259200000000D+06-0.726431608200D-07-0.182003707247D+01-0.670552253723D-07
    0.960050812187D+00 0.280625000000D+03-0.293590347799D+01-0.826927301984D-08
   -0.220366321999D-09 0.100000000000D+01 0.216300000000D+04 0.000000000000D+00
    0.200000000000D+01 0.000000000000D+00-0.419095158577D-08 0.406000000000D+03
    0.252018000000D+06 0.400000000000D+01 0.000000000000D+00 0.000000000000D+00
 5 21  6 23  0  0  0.0-0.457502901554D-04-0.113686837722D-11 0.000000000000D+00
    0.880000000000D+02-0.292187500000D+02 0.464269338681D-08 0.149023508858D+01
   -0.137090682983D-05 0.613642530516D-02 0.115074217319D-04 0.515389930344D+04
    0.259200000000D+06-0.158324837685D-06-0.293779048286D+01 0.106170773506D-06
    0.956976318682D+00 0.158468750000D+03 0.912869729191D+00-0.792675875275D-08
    0.721458623076D-09 0.100000000000D+01 0.216300000000D+04 0.000000000000D+00
    0.200000000000D+01 0.000000000000D+00-0.111758708954D-07 0.880000000000D+02
    0.252018000000D+06 0.400000000000D+01 0.000000000000D+00 0.000000000000D+00
 6 21  6 23  0  0  0.0 0.303345732391D-04 0.488853402203D-11 0.000000000000D+00
    0.105000000000D+03-0.157125000000D+03 0.380408702692D-08-0.962825970709D+00
   -0.839307904244D-05 0.211684755050D-02 0.920332968235D-05 0.515379554367D+04
    0.259200000000D+06-0.931322574616D-08 0.233743648791D+01-0.745058059692D-08
    0.984190566779D+00 0.215843750000D+03-0.968406018638D+00-0.780675375406D-08
   -0.725030200418D-10 0.100000000000D+01 0.216300000000D+04 0.000000000000D+00
    0.280000000000D+01 0.000000000000D+00 0.419095158577D-08 0.105000000000D+03
    0.252018000000D+06 0.400000000000D+01 0.000000000000D+00 0.000000000000D+00
 9 21  6 23  0  0  0.0-0.352397095412D-03-0.181898940355D-11 0.000000000000D+00
    0.610000000000D+02-0.296875000000D+01 0.523343227918D-08 0.148030488405D+01
   -0.340864062309D-06 0.188531680033D-02 0.504031777382D-05 0.515374987793D+04
    0.259200000000D+06-0.391155481338D-07-0.187110835746D+01-0.279396772385D-07
    0.952950223299D+00 0.275593750000D+03 0.182747485227D+01-0.826570144250D-08
   -0.118933525487D-09 0.100000000000D+01 0.216300000000D+04 0.000000000000D+00
    0.200000000000D+01 0.000000000000D+00 0.139698386192D-08 0.610000000000D+02
    0.252018000000D+06 0.400000000000D+01 0.000000000000D+00 0.000000000000D+00
10 21  6 23  0  0  0.0-0.147713348269D-03-0.761701812735D-11 0.000000000000D+00
    0.600000000000D+02-0.193750000000D+02 0.425874882255D-08 0.310101240180D+01
   -0.964850187302D-06 0.669453886803D-02 0.111069530249D-04 0.515367496872D+04
    0.259200000000D+06-0.279396772385D-07-0.290347474618D+01-0.145286321640D-06
    0.969873827252D+00 0.172031250000D+03-0.256803974503D+01-0.756674375668D-08
    0.659313177326D-09 0.100000000000D+01 0.216300000000D+04 0.000000000000D+00
    0.200000000000D+01 0.000000000000D+00 0.232830643654D-08 0.600000000000D+02
    0.253483000000D+06 0.400000000000D+01 0.000000000000D+00 0.000000000000D+00
12 21  6 23  0  0  0.0-0.586947426200D-04-0.522959453519D-11 0.000000000000D+00
    0.610000000000D+02 0.172281250000D+03 0.387444710056D-08-0.252461990048D+01
    0.892393290997D-05 0.834845728241D-02 0.759586691856D-05 0.515373057175D+04
    0.259200000000D+06 0.484287738800D-07 0.311981647722D+00-0.931322574615D-07
    0.973661758109D+00 0.240187500000D+03 0.122338897671D+01-0.772996484121D-08
    0.268939773850D-09 0.100000000000D+01 0.216300000000D+04 0.000000000000D+00
    0.200000000000D+01 0.000000000000D+00-0.125728547573D-07 0.610000000000D+02
    0.252018000000D+06 0.400000000000D+01 0.000000000000D+00 0.000000000000D+00
13 21  6 23  0  0  0.0 0.148340594023D-03 0.488853402203D-11 0.000000000000D+00
    0.800000000000D+02-0.637500000000D+01 0.501485174585D-08 0.489489994526D+00
   -0.150874257088D-06 0.504505622666D-02 0.532902777195D-05 0.515366864014D+04
    0.259200000000D+06 0.298023223877D-07-0.172198268411D+01 0.409781932831D-07
    0.967649910891D+00 0.278031250000D+03 0.960209636814D+00-0.823427156189D-08
   -0.304298389535D-09 0.100000000000D+01 0.216300000000D+04 0.000000000000D+00
    0.200000000000D+01 0.000000000000D+00-0.111758708954D-07 0.800000000000D+02
    0.252018000000D+06 0.400000000000D+01 0.000000000000D+00 0.000000000000D+00
14 21  6 23  0  0  0.0 0.636405311525D-04-0.795807864051D-11 0.000000000000D+00
    0.181000000000D+03 0.166718750000D+03 0.424553398639D-08-0.233193662837D+01
    0.868551433086D-05 0.810845172964D-03 0.733323395252D-05 0.515376161003D+04
    0.259200000000D+06 0.100582838059D-06 0.284442368486D+00 0.279396772385D-07
    0.957140638029D+00 0.237875000000D+03 0.285678222662D+01-0.804462080503D-08
    0.267868300647D-09 0.100000000000D+01 0.216300000000D+04 0.000000000000D+00
    0.200000000000D+01 0.000000000000D+00-0.791624188423D-08 0.949000000000D+03
    0.252018000000D+06 0.400000000000D+01 0.000000000000D+00 0.000000000000D+00
15 21  6 23  0  0  0.0-0.140526331961D-03 0.261479726760D-11 0.000000000000D+00
    0.180000000000D+02 0.825000000000D+01 0.601739350574D-08 0.146104427139D+00
    0.679865479469D-06 0.132480947068D-01 0.484101474285D-05 0.515361851311D+04
    0.259200000000D+06-0.745058059692D-07-0.197092093782D+01 0.135973095894D-06
    0.928693367967D+00 0.267156250000D+03 0.992270939199D+00-0.889429905469D-08
    0.892894335490D-11 0.100000000000D+01 0.216300000000D+04 0.000000000000D+00
    0.200000000000D+01 0.000000000000D+00-0.107102096081D-07 0.180000000000D+02
    0.252018000000D+06 0.400000000000D+01 0.000000000000D+00 0.000000000000D+00
16 21  6 23  0  0  0.0-0.345575623214D-03-0.602540239925D-11 0.000000000000D+00
    0.530000000000D+02 0.146500000000D+03 0.397873715894D-08 0.194836205639D+01
    0.748597085476D-05 0.121822104556D-01 0.737048685551D-05 0.515372203255D+04
    0.259200000000D+06-0.266358256340D-06 0.330705303615D+00-0.391155481338D-07
    0.973715529126D+00 0.246031250000D+03 0.678989989081D+00-0.793247327649D-08
    0.157506560781D-09 0.100000000000D+01 0.216300000000D+04 0.000000000000D+00
    0.200000000000D+01 0.000000000000D+00-0.102445483208D-07 0.530000000000D+02
    0.252049000000D+06 0.400000000000D+01 0.000000000000D+00 0.000000000000D+00
17 21  6 23  0  0  0.0 0.462686177343D-03 0.591171556152D-11 0.000000000000D+00
    0.340000000000D+02-0.201250000000D+02 0.435625288399D-08 0.106044104184D+01
   -0.118650496006D-05 0.133503493853D-01-0.167638063431D-07 0.515361454391D+04
    0.259200000000D+06-0.279396772385D-06 0.134832139216D+01-0.195577740669D-06
    0.981708018205D+00 0.388500000000D+03-0.156490062211D+01-0.858821487648D-08
    0.157149403046D-10 0.100000000000D+01 0.216300000000D+04 0.000000000000D+00
    0.280000000000D+01 0.000000000000D+00-0.111758708954D-07 0.340000000000D+02
    0.252018000000D+06 0.400000000000D+01 0.000000000000D+00 0.000000000000D+00
